GLOBALSTAR M045         
1 25676U 99019A   25062.52724066 -.00000068  00000+0  22732-3 0  9994
2 25676  51.9946 246.4240 0001009  72.9319 321.1880 12.27058334180428
GLOBALSTAR M019         
1 25677U 99019B   25062.04829726 -.00000228  00000+0 -14413-2 0  9996
2 25677  51.9912  10.6827 0001449  95.1739 346.2342 12.13873166172251
GLOBALSTAR M044         
1 25678U 99019C   25061.96219167 -.00000071  00000+0  17345-3 0  9992
2 25678  51.9984 308.9982 0006004 189.8428 290.8607 11.90246642158679
GLOBALSTAR M042         
1 25679U 99019D   25062.24933817 -.00000071  00000+0  20287-3 0  9999
2 25679  52.0046 350.0195 0003354  78.2372  78.7170 12.22079379172377
GLOBALSTAR M025         
1 25770U 99031A   25062.36361190 -.00000079  00000+0 -35630-3 0  9994
2 25770  51.9833  44.4163 0001416 334.5458 175.0954 11.22559566469820
GLOBALSTAR M049         
1 25771U 99031B   25062.46811876 -.00000015  00000+0  17456-2 0  9991
2 25771  51.9869  73.6252 0003251 192.9538 167.1175 11.12115472105666
GLOBALSTAR M047         
1 25772U 99031C   25062.44511086 -.00000070  00000+0 -14241-4 0  9993
2 25772  51.9824  80.7506 0016430  82.3734 277.8937 11.31926210459132
GLOBALSTAR M052         
1 25773U 99031D   25062.54294417 -.00000051  00000+0  49168-3 0  9994
2 25773  51.9850 183.6191 0002077  18.4966  66.0462 11.15058109466723
